NORAD_CAT_ID,OBJECT_NAME,OBJECT_TYPE,EPOCH,MEAN_MOTION,ECCENTRICITY,INCLINATION,RA_OF_ASC_NODE,ARG_OF_PERICENTER,MEAN_ANOMALY,BSTAR,MEAN_MOTION_DOT,MEAN_MOTION_DDOT,TLE_LINE0,TLE_LINE1,TLE_LINE2,SEMIMAJOR_AXIS,PERIOD,APOGEE,PERIGEE,DECAYED
49441.0,STARLINK-3128,PAYLOAD,2023-05-30 04:52:11,15.08843066,0.0001458,53.2174,83.3286,108.7075,251.4075,-3.7748e-05,-8.89e-06,0.0,0 STARLINK-3128,1 49441U 21104AK  23150.20291212 -.00000889  00000-0 -37748-4 0  9990,2 49441  53.2174  83.3286 0001458 108.7075 251.4075 15.08843066 86843,6917.871,95.437,540.745,538.727,0.0
49441.0,STARLINK-3128,PAYLOAD,2023-05-30 19:10:40,15.08838925,0.0001406,53.2177,80.6496,97.0204,263.0948,1.9603e-05,2.4e-07,0.0,0 STARLINK-3128,1 49441U 21104AK  23150.79907438  .00000024  00000-0  19603-4 0  9997,2 49441  53.2177  80.6496 0001406  97.0204 263.0948 15.08838925 85852,6917.884,95.438,540.721,538.776,0.0
49441.0,STARLINK-3128,PAYLOAD,2023-05-31 04:42:58,15.08850564,0.0001401,53.2177,78.868,89.9142,270.2011,0.00010235,1.342e-05,0.0,0 STARLINK-3128,1 49441U 21104AK  23151.19650484  .00001342  00000-0  10235-3 0  9993,2 49441  53.2177  78.8680 0001401  89.9142 270.2011 15.08850564 86992,6917.848,95.437,540.682,538.744,0.0
49441.0,STARLINK-3128,PAYLOAD,2023-05-31 22:12:13,15.08838633,0.0001477,53.2178,75.596,94.7116,265.4045,7.7729e-05,9.49e-06,0.0,0 STARLINK-3128,1 49441U 21104AK  23151.92515253  .00000949  00000-0  77729-4 0  9992,2 49441  53.2178  75.5960 0001477  94.7116 265.4045 15.08838633 86026,6917.885,95.438,540.771,538.728,0.0
49441.0,STARLINK-3128,PAYLOAD,2023-06-01 04:33:45,15.08839368,0.000144,53.2193,74.4037,107.2354,252.8796,9.9265e-05,1.292e-05,0.0,0 STARLINK-3128,1 49441U 21104AK  23152.19011006  .00001292  00000-0  99265-4 0  9990,2 49441  53.2193  74.4037 0001440 107.2354 252.8796 15.08839368 87143,6917.882,95.438,540.743,538.751,0.0
49441.0,STARLINK-3128,PAYLOAD,2023-06-02 04:24:32,15.08843965,0.0001374,53.2178,69.9445,100.0793,260.0355,-3.953e-05,-9.17e-06,0.0,0 STARLINK-3128,1 49441U 21104AK  23153.18371150 -.00000917  00000-0 -39530-4 0  9993,2 49441  53.2178  69.9445 0001374 100.0793 260.0355 15.08843965 86219,6917.868,95.437,540.684,538.783,0.0
49441.0,STARLINK-3128,PAYLOAD,2023-06-03 04:15:19,15.08845162,0.0001219,53.2183,65.485,91.0805,269.0327,5.3113e-05,5.58e-06,0.0,0 STARLINK-3128,1 49441U 21104AK  23154.17730993  .00000558  00000-0  53113-4 0  9999,2 49441  53.2183  65.4850 0001219  91.0805 269.0327 15.08845162 87442,6917.865,95.437,540.573,538.886,0.0
49441.0,STARLINK-3128,PAYLOAD,2023-06-03 21:44:32,15.08860796,0.0001185,53.2183,62.2146,88.0381,272.0747,0.00021245,3.097e-05,0.0,0 STARLINK-3128,1 49441U 21104AK  23154.90593019  .00003097  00000-0  21245-3 0  9997,2 49441  53.2183  62.2146 0001185  88.0381 272.0747 15.08860796 86474,6917.817,95.436,540.502,538.862,0.0
49441.0,STARLINK-3128,PAYLOAD,2023-06-04 00:55:18,15.08861931,0.0001151,53.2172,61.6225,92.9912,267.1212,0.00021309,3.107e-05,0.0,0 STARLINK-3128,1 49441U 21104AK  23155.03840799  .00003107  00000-0  21309-3 0  9995,2 49441  53.2172  61.6225 0001151  92.9912 267.1212 15.08861931 87576,6917.813,95.436,540.475,538.882,0.0
49441.0,STARLINK-3128,PAYLOAD,2023-06-04 13:38:25,15.08826489,0.0001689,53.2183,59.2412,127.0966,233.0181,-1.3867e-05,-5.09e-06,0.0,0 STARLINK-3128,1 49441U 21104AK  23155.56835460 -.00000509  00000-0 -13867-4 0  9998,2 49441  53.2183  59.2412 0001689 127.0966 233.0181 15.08826489 86579,6917.922,95.438,540.955,538.618,0.0
49441.0,STARLINK-3128,PAYLOAD,2023-06-04 18:24:35,15.0882559,8.33e-05,53.2185,58.3495,86.1321,273.9767,-0.00013749,-2.474e-05,0.0,0 STARLINK-3128,1 49441U 21104AK  23155.76708211 -.00002474  00000-0 -13749-3 0  9994,2 49441  53.2185  58.3495 0000833  86.1321 273.9767 15.08825590 87680,6917.924,95.438,540.366,539.213,0.0
49441.0,STARLINK-3128,PAYLOAD,2023-06-04 21:35:22,15.08825949,0.0001204,53.2182,57.7537,106.9855,253.1269,-0.00011871,-2.176e-05,0.0,0 STARLINK-3128,1 49441U 21104AK  23155.89956187 -.00002176  00000-0 -11871-3 0  9998,2 49441  53.2182  57.7537 0001204 106.9855 253.1269 15.08825949 86621,6917.923,95.438,540.621,538.955,0.0
49441.0,STARLINK-3128,PAYLOAD,2023-06-05 03:56:54,15.08833148,0.0001164,53.2178,56.5663,103.3135,256.7987,-5.4393e-05,-1.153e-05,0.0,0 STARLINK-3128,1 49441U 21104AK  23156.16451732 -.00001153  00000-0 -54393-4 0  9996,2 49441  53.2178  56.5663 0001164 103.3135 256.7987 15.08833148 87740,6917.901,95.438,540.572,538.961,0.0
49441.0,STARLINK-3128,PAYLOAD,2023-06-06 02:12:17,15.08840014,0.0001208,53.217,52.404,97.5275,262.5854,-4.5128e-05,-1.006e-05,0.0,0 STARLINK-3128,1 49441U 21104AK  23157.09186993 -.00001006  00000-0 -45128-4 0  9996,2 49441  53.2170  52.4040 0001208  97.5275 262.5854 15.08840014 87887,6917.88,95.438,540.581,538.91,0.0
49441.0,STARLINK-3128,PAYLOAD,2023-06-07 02:03:05,15.08846454,0.0001185,53.2169,47.9436,94.4863,265.6265,0.00045617,6.981e-05,0.0,0 STARLINK-3128,1 49441U 21104AK  23158.08547647  .00006981  00000-0  45617-3 0  9990,2 49441  53.2169  47.9436 0001185  94.4863 265.6265 15.08846454 86957,6917.861,95.437,540.545,538.906,0.0
49441.0,STARLINK-3128,PAYLOAD,2023-06-07 16:21:33,15.08834757,0.0001284,53.2167,45.2658,94.9987,265.1152,0.00013379,1.842e-05,0.0,0 STARLINK-3128,1 49441U 21104AK  23158.68164320  .00001842  00000-0  13379-3 0  9990,2 49441  53.2167  45.2658 0001284  94.9987 265.1152 15.08834757 88128,6917.896,95.438,540.65,538.873,0.0
49441.0,STARLINK-3128,PAYLOAD,2023-06-07 22:43:06,15.08836388,0.0001285,53.2174,44.0765,96.3284,263.7855,0.00010258,1.345e-05,0.0,0 STARLINK-3128,1 49441U 21104AK  23158.94660371  .00001345  00000-0  10258-3 0  9997,2 49441  53.2174  44.0765 0001285  96.3284 263.7855 15.08836388 87089,6917.891,95.438,540.645,538.867,0.0
49441.0,STARLINK-3128,PAYLOAD,2023-06-08 16:12:20,15.0884557,0.0001175,53.2171,40.8076,86.7562,273.3565,0.00022432,3.285e-05,0.0,0 STARLINK-3128,1 49441U 21104AK  23159.67524211  .00003285  00000-0  22432-3 0  9992,2 49441  53.2171  40.8076 0001175  86.7562 273.3565 15.08845570 87195,6917.863,95.437,540.541,538.916,0.0
49441.0,STARLINK-3128,PAYLOAD,2023-06-08 22:33:53,15.08850924,0.0001195,53.2169,39.6175,88.2139,271.899,0.00033329,5.022e-05,0.0,0 STARLINK-3128,1 49441U 21104AK  23159.94020025  .00005022  00000-0  33329-3 0  9994,2 49441  53.2169  39.6175 0001195  88.2139 271.8990 15.08850924 88316,6917.847,95.437,540.539,538.885,0.0
49441.0,STARLINK-3128,PAYLOAD,2023-06-09 16:03:08,15.08842935,0.0001523,53.2158,36.35,60.4626,299.6518,0.00010844,1.438e-05,0.0,0 STARLINK-3128,1 49441U 21104AK  23160.66884382  .00001438  00000-0  10844-3 0  9993,2 49441  53.2158  36.3500 0001523  60.4626 299.6518 15.08842935 88427,6917.871,95.437,540.79,538.683,0.0
49441.0,STARLINK-3128,PAYLOAD,2023-06-09 19:13:54,15.08840495,0.0001297,53.2164,35.7538,71.8601,288.2533,5.5446e-05,5.95e-06,0.0,0 STARLINK-3128,1 49441U 21104AK  23160.80132438  .00000595  00000-0  55446-4 0  9998,2 49441  53.2164  35.7538 0001297  71.8601 288.2533 15.08840495 87367,6917.879,95.438,540.641,538.847,0.0
49441.0,STARLINK-3128,PAYLOAD,2023-06-10 01:35:26,15.08841545,0.0001242,53.2168,34.5622,92.1521,267.9613,0.0001146,1.537e-05,0.0,0 STARLINK-3128,1 49441U 21104AK  23161.06628319  .00001537  00000-0  11460-3 0  9999,2 49441  53.2168  34.5622 0001242  92.1521 267.9613 15.08841545 87404,6917.876,95.437,540.6,538.881,0.0
49441.0,STARLINK-3128,PAYLOAD,2023-06-10 15:53:55,15.08838698,0.000128,53.2171,31.8849,93.4268,266.687,-2.3486e-05,-6.62e-06,0.0,0 STARLINK-3128,1 49441U 21104AK  23161.66244512 -.00000662  00000-0 -23486-4 0  9996,2 49441  53.2171  31.8849 0001280  93.4268 266.6870 15.08838698 88578,6917.884,95.438,540.635,538.864,0.0
49441.0,STARLINK-3128,PAYLOAD,2023-06-10 22:15:27,15.08843152,0.0001272,53.2171,30.6964,92.6605,267.4532,6.1367e-05,6.89e-06,0.0,0 STARLINK-3128,1 49441U 21104AK  23161.92740260  .00000689  00000-0  61367-4 0  9993,2 49441  53.2171  30.6964 0001272  92.6605 267.4532 15.08843152 87530,6917.871,95.437,540.616,538.856,0.0
49441.0,STARLINK-3128,PAYLOAD,2023-06-11 07:47:46,15.08843699,0.0001185,53.218,28.9125,87.1858,272.9269,6.5303e-06,-1.84e-06,0.0,0 STARLINK-3128,1 49441U 21104AK  23162.32484360 -.00000184  00000-0  65303-5 0  9990,2 49441  53.2180  28.9125 0001185  87.1858 272.9269 15.08843699 87591,6917.869,95.437,540.554,538.914,0.0
49441.0,STARLINK-3128,PAYLOAD,2023-06-11 22:06:16,15.08822902,0.0001301,53.2182,26.2368,93.5289,266.5851,-2.3431e-05,-6.61e-06,0.0,0 STARLINK-3128,1 49441U 21104AK  23162.92102274 -.00000661  00000-0 -23431-4 0  9993,2 49441  53.2182  26.2368 0001301  93.5289 266.5851 15.08822902 87682,6917.933,95.439,540.698,538.898,0.0
49441.0,STARLINK-3128,PAYLOAD,2023-06-12 01:17:02,15.08824074,0.0001349,53.2182,25.642,89.6363,270.4783,-1.3045e-05,-4.95e-06,0.0,0 STARLINK-3128,1 49441U 21104AK  23163.05350281 -.00000495  00000-0 -13045-4 0  9996,2 49441  53.2182  25.6420 0001349  89.6363 270.4783 15.08824074 88787,6917.929,95.439,540.727,538.861,0.0
49441.0,STARLINK-3128,PAYLOAD,2023-06-12 07:38:34,15.08834443,0.0001346,53.2192,24.4536,100.9876,259.1267,5.4118e-05,5.73e-06,0.0,0 STARLINK-3128,1 49441U 21104AK  23163.31845563  .00000573  00000-0  54118-4 0  9998,2 49441  53.2192  24.4536 0001346 100.9876 259.1267 15.08834443 88823,6917.897,95.438,540.694,538.831,0.0
49441.0,STARLINK-3128,PAYLOAD,2023-06-12 23:32:24,15.08851684,0.0001149,53.2181,21.4788,93.0059,267.1064,0.00018789,2.705e-05,0.0,0 STARLINK-3128,1 49441U 21104AK  23163.98084184  .00002705  00000-0  18789-3 0  9997,2 49441  53.2181  21.4788 0001149  93.0059 267.1064 15.08851684 88924,6917.845,95.437,540.505,538.915,0.0
49441.0,STARLINK-3128,PAYLOAD,2023-06-13 17:01:40,15.08835708,0.0001047,53.2179,18.2076,94.7427,265.3685,0.0002317,3.401e-05,0.0,0 STARLINK-3128,1 49441U 21104AK  23164.70949177  .00003401  00000-0  23170-3 0  9994,2 49441  53.2179  18.2076 0001047  94.7427 265.3685 15.08835708 89030,6917.894,95.438,540.483,539.034,0.0
